GLOBALSTAR M035 [-]     
1 25851U 99037A   23293.52376855 -.00000100  00000+0 -13825-2 0  9992
2 25851  51.9970 325.6336 0013814  80.4440  69.0960 11.04526630 29345
GLOBALSTAR M032 [-]     
1 25852U 99037B   23293.98301785 -.00000042  00000+0  78623-3 0  9995
2 25852  51.9937 191.5648 0007250 226.2207 133.7993 11.19045117 67083
GLOBALSTAR M051 [-]     
1 25853U 99037C   23293.72656764 -.00000065  00000+0  17489-3 0  9996
2 25853  51.9806  61.4692 0001575 185.0531 175.0264 11.42192966 63200
GLOBALSTAR M030 [-]     
1 25854U 99037D   23294.11519806 -.00000111  00000+0 -76574-3 0  9999
2 25854  51.9869 265.1100 0004758  39.1840 320.9320 11.55091143 80229
GLOBALSTAR M048 [-]     
1 25872U 99041A   23293.39211207 -.00000061  00000+0  25595-3 0  9997
2 25872  51.9393 333.8874 0013231 215.2501 239.5943 11.33840247 56265
GLOBALSTAR M026 [-]     
1 25873U 99041B   23293.42072272 -.00000009  00000+0  20145-2 0  9996
2 25873  51.9990  90.2054 0001264  14.1440 357.5463 11.06828472 81413
GLOBALSTAR M043 [-]     
1 25874U 99041C   23293.78362654 -.00000070  00000+0 -43483-4 0  9993
2 25874  51.9415  56.4691 0013079   2.3048 171.3314 11.25675323 54690
GLOBALSTAR M028 [-]     
1 25875U 99041D   23293.87755863 -.00000068  00000+0  20971-3 0  9994
2 25875  51.9619 197.9261 0062959 196.4831 163.3982 12.50542554114447
